1 26871U 01031A   12093.40419714 -.00000291  00000-0  10000-3 0  5245
2 26871 002.0899 073.7782 0003840 332.3394 230.4281 01.00261585 39235